{
    "links": {
        "self": "http://www.neowsapp.com/rest/v1/neo/3550115?api_key=iIulBulltgU6a56xZRHN4H3l9WmuAYTsLGpBGhQ2"
    },
    "id": "3550115",
    "neo_reference_id": "3550115",
    "name": "(2010 UE8)",
    "designation": "2010 UE8",
    "nasa_jpl_url": "http://ssd.jpl.nasa.gov/sbdb.cgi?sstr=3550115",
    "absolute_magnitude_h": 25.0,
    "estimated_diameter": {
        "kilometers": {
            "estimated_diameter_min": 0.02658,
            "estimated_diameter_max": 0.0594346868
        },
        "meters": {
            "estimated_diameter_min": 26.58,
            "estimated_diameter_max": 59.4346868419
        },
        "miles": {
            "estimated_diameter_min": 0.0165160412,
            "estimated_diameter_max": 0.0369309908
        },
        "feet": {
            "estimated_diameter_min": 87.2047272,
            "estimated_diameter_max": 194.9956979785
        }
    },
    "is_potentially_hazardous_asteroid": false,
    "close_approach_data": [
        {
            "close_approach_date": "2010-11-18",
            "close_approach_date_full": "2010-Nov-18 12:37",
            "epoch_date_close_approach": 1290083820000,
            "relative_velocity": {
                "kilometers_per_second": "2.7769744932",
                "kilometers_per_hour": "9997.1081754292",
                "miles_per_hour": "6211.8142437826"
            },
            "miss_distance": {
                "astronomical": "0.0877935591",
                "lunar": "34.1516944899",
                "kilometers": "13133729.441079117",
                "miles": "8160921.0477491346"
            },
            "orbiting_body": "Earth"
        }
    ],
    "orbital_data": {
        "orbit_id": "8",
        "orbit_determination_date": "2019-07-17 06:08:58",
        "first_observation_date": "2010-10-30",
        "last_observation_date": "2010-11-03",
        "data_arc_in_days": 4,
        "observations_used": 18,
        "orbit_uncertainty": "8",
        "minimum_orbit_intersection": ".08459",
        "jupiter_tisserand_invariant": "4.600",
        "epoch_osculation": "2455501.5",
        "eccentricity": ".2674910462910021",
        "semi_major_axis": "1.452395085698161",
        "inclination": "2.62792568919781",
        "ascending_node_longitude": "9.271760435717979",
        "orbital_period": "639.3307349178232",
        "perihelion_distance": "1.06389240459685",
        "perihelion_argument": "54.63354475244518",
        "aphelion_distance": "1.840897766799471",
        "perihelion_time": "2455525.589410959553",
        "mean_anomaly": "346.4355215981385",
        "mean_motion": ".5630888370262269",
        "equinox": "J2000",
        "orbit_class": {
            "orbit_class_type": "AMO",
            "orbit_class_description": "Near-Earth asteroid orbits similar to that of 1221 Amor",
            "orbit_class_range": "1.017 AU < q (perihelion) < 1.3 AU"
        }
    },
    "is_sentry_object": false
}